[{"OBJECT_NAME":"TELEOS-2","OBJECT_ID":"2023-057C","EPOCH":"2026-03-08T15:30:11.035584","MEAN_MOTION":14.96380118,"ECCENTRICITY":8.033e-5,"INCLINATION":9.9874,"RA_OF_ASC_NODE":216.2411,"ARG_OF_PERICENTER":295.2771,"MEAN_ANOMALY":64.7359,"EPHEMERIS_TYPE":0,"CLASSIFICATION_TYPE":"U","NORAD_CAT_ID":56310,"ELEMENT_SET_NO":999,"REV_AT_EPOCH":15771,"BSTAR":1.5043378e-5,"MEAN_MOTION_DOT":8.63e-6,"MEAN_MOTION_DDOT":0},{"OBJECT_NAME":"STARLINK-36084","OBJECT_ID":"2025-280J","EPOCH":"2026-03-09T22:21:12.154752","MEAN_MOTION":14.98330561,"ECCENTRICITY":0.0002624,"INCLINATION":70.0029,"RA_OF_ASC_NODE":333.7835,"ARG_OF_PERICENTER":261.2566,"MEAN_ANOMALY":98.8296,"EPHEMERIS_TYPE":0,"CLASSIFICATION_TYPE":"U","NORAD_CAT_ID":66829,"ELEMENT_SET_NO":999,"REV_AT_EPOCH":1611,"BSTAR":0.00053936886,"MEAN_MOTION_DOT":6.349e-5,"MEAN_MOTION_DDOT":0}]
